[
    {
        "CCSDS_OMM_VERS": "3.0",
        "COMMENT": "GENERATED VIA SPACE-TRACK.ORG API",
        "CREATION_DATE": "2025-03-02T18:08:23",
        "ORIGINATOR": "18 SPCS",
        "OBJECT_NAME": "GALILEO 29 (10C)",
        "OBJECT_ID": "2024-079A",
        "CENTER_NAME": "EARTH",
        "REF_FRAME": "TEME",
        "TIME_SYSTEM": "UTC",
        "MEAN_ELEMENT_THEORY": "SGP4",
        "EPOCH": "2025-03-02T04:52:38.679744",
        "MEAN_MOTION": "1.70474993",
        "ECCENTRICITY": "0.00029150",
        "INCLINATION": "54.8327",
        "RA_OF_ASC_NODE": "114.2841",
        "ARG_OF_PERICENTER": "232.6017",
        "MEAN_ANOMALY": "124.5400",
        "EPHEMERIS_TYPE": "0",
        "CLASSIFICATION_TYPE": "U",
        "NORAD_CAT_ID": "59598",
        "ELEMENT_SET_NO": "999",
        "REV_AT_EPOCH": "526",
        "BSTAR": "0.00000000000000",
        "MEAN_MOTION_DOT": "0.00000024",
        "MEAN_MOTION_DDOT": "0.0000000000000",
        "SEMIMAJOR_AXIS": "29600.205",
        "PERIOD": "844.699",
        "APOAPSIS": "23230.699",
        "PERIAPSIS": "23213.442",
        "OBJECT_TYPE": "PAYLOAD",
        "RCS_SIZE": "LARGE",
        "COUNTRY_CODE": "ESA",
        "LAUNCH_DATE": "2024-04-28",
        "SITE": "AFETR",
        "DECAY_DATE": null,
        "FILE": "4657142",
        "GP_ID": "282097157",
        "TLE_LINE0": "0 GALILEO 29 (10C)",
        "TLE_LINE1": "1 59598U 24079A   25061.20322546  .00000024  00000-0  00000-0 0  9992",
        "TLE_LINE2": "2 59598  54.8327 114.2841 0002915 232.6017 124.5400  1.70474993  5269"
    }
]